TIGRISAT                
1 40043U 14033AK  26065.22026923  .00003323  00000+0  38990-3 0  9999
2 40043  97.7666 217.7074 0050596  53.5682 307.0182 14.84705628630348
AEROCUBE 6A             
1 40045U 14033AM  26064.98669179  .00007314  00000+0  63433-3 0  9993
2 40045  97.7116 233.1795 0039133   1.9552 358.1816 14.96776353631178
AEROCUBE 6B             
1 40046U 14033AN  26065.02007301  .00008109  00000+0  67866-3 0  9990
2 40046  97.7118 232.7985 0037583 354.9314   5.1522 14.98167003631307
CANX-4                  
1 40055U 14034C   26065.19787344  .00001592  00000+0  21242-3 0  9998
2 40055  98.3282 296.6514 0012569 348.0358  12.0553 14.81051341629286
CANX-5                  
1 40056U 14034D   26065.19748572  .00001605  00000+0  21397-3 0  9995
2 40056  98.3283 296.6887 0012570 348.1880  11.9035 14.81068109620097
UKUBE-1                 
1 40074U 14037F   26064.91073485  .00011838  00000+0  69915-3 0  9998
2 40074  98.4232  57.4881 0002911 114.9636 245.1894 15.11691452632943
BRITE-PL2 (HEWELIUSZ)   
1 40119U 14049B   26065.25774360  .00003850  00000+0  36435-3 0  9995
2 40119  97.8984 176.5682 0015608  91.8548 268.4459 14.94161298626076
AEROCUBE 5C             
1 40965U 15058B   26065.15670107  .00004744  00000+0  42294-3 0  9991
2 40965  64.7670 222.9588 0130892 103.8986 257.6726 14.90817390350296
AEROCUBE 7              
1 40966U 15058C   26064.70340440  .00007242  00000+0  58641-3 0  9995
2 40966  64.7625 208.7339 0120856 103.1701 258.2931 14.94843040350481
FOX-1A (AO-85)          
1 40967U 15058D   26064.96884263  .00004624  00000+0  42003-3 0  9996
2 40967  64.7740 239.5934 0129065  97.4133 264.1666 14.90316117 98181
SINOD-D 1               
1 40968U 15058E   26064.82693363  .00007347  00000+0  59701-3 0  9999
2 40968  64.7751 222.3735 0117436  94.7851 266.6685 14.94998582101201
SNAP-3 ALICE            
1 40970U 15058G   26065.27045106  .00064583  00000+0  14055-2 0  9995
2 40970  64.7555  94.8551 0037486  69.9807 290.5360 15.43162411100928
LMRST-SAT               
1 40971U 15058H   26064.89835020  .00004606  00000+0  42032-3 0  9992
2 40971  64.7747 235.9587 0131200  99.3900 262.2072 14.89947949 98163
SNAP-3 EDDIE            
1 40972U 15058J   26065.33418952  .00064060  00000+0  13457-2 0  9992
2 40972  64.7476  86.0515 0038690  74.9372 285.6042 15.44152666103068
PROPCUBE 3              
1 40973U 15058K   26064.84829298  .00006750  00000+0  56406-3 0  9991
2 40973  64.7687 215.2150 0123767 101.1974 260.3082 14.93480098 99362
BISONSAT                
1 40974U 15058L   26064.66093681  .00014949  00000+0  77377-3 0  9990
2 40974  64.7602 147.7349 0079526  92.5058 268.5172 15.13675233 99931
