[{"OBJECT_NAME":"TIGRISAT","OBJECT_ID":"2014-033AK","EPOCH":"2026-03-06T05:17:11.261472","MEAN_MOTION":14.84705628,"ECCENTRICITY":0.00505966,"INCLINATION":97.7666,"RA_OF_ASC_NODE":217.7074,"ARG_OF_PERICENTER":53.5682,"MEAN_ANOMALY":307.0182,"EPHEMERIS_TYPE":0,"CLASSIFICATION_TYPE":"U","NORAD_CAT_ID":40043,"ELEMENT_SET_NO":999,"REV_AT_EPOCH":63034,"BSTAR":0.0003898983,"MEAN_MOTION_DOT":3.323e-5,"MEAN_MOTION_DDOT":0},{"OBJECT_NAME":"AEROCUBE 6A","OBJECT_ID":"2014-033AM","EPOCH":"2026-03-05T23:40:50.170656","MEAN_MOTION":14.96776353,"ECCENTRICITY":0.00391337,"INCLINATION":97.7116,"RA_OF_ASC_NODE":233.1795,"ARG_OF_PERICENTER":1.9552,"MEAN_ANOMALY":358.1816,"EPHEMERIS_TYPE":0,"CLASSIFICATION_TYPE":"U","NORAD_CAT_ID":40045,"ELEMENT_SET_NO":999,"REV_AT_EPOCH":63117,"BSTAR":0.00063432826,"MEAN_MOTION_DOT":7.314e-5,"MEAN_MOTION_DDOT":0},{"OBJECT_NAME":"AEROCUBE 6B","OBJECT_ID":"2014-033AN","EPOCH":"2026-03-06T00:28:54.308064","MEAN_MOTION":14.98167003,"ECCENTRICITY":0.00375836,"INCLINATION":97.7118,"RA_OF_ASC_NODE":232.7985,"ARG_OF_PERICENTER":354.9314,"MEAN_ANOMALY":5.1522,"EPHEMERIS_TYPE":0,"CLASSIFICATION_TYPE":"U","NORAD_CAT_ID":40046,"ELEMENT_SET_NO":999,"REV_AT_EPOCH":63130,"BSTAR":0.0006786571,"MEAN_MOTION_DOT":8.109e-5,"MEAN_MOTION_DDOT":0},{"OBJECT_NAME":"CANX-4","OBJECT_ID":"2014-034C","EPOCH":"2026-03-06T04:44:56.265216","MEAN_MOTION":14.81051341,"ECCENTRICITY":0.00125695,"INCLINATION":98.3282,"RA_OF_ASC_NODE":296.6514,"ARG_OF_PERICENTER":348.0358,"MEAN_ANOMALY":12.0553,"EPHEMERIS_TYPE":0,"CLASSIFICATION_TYPE":"U","NORAD_CAT_ID":40055,"ELEMENT_SET_NO":999,"REV_AT_EPOCH":62928,"BSTAR":0.00021242079,"MEAN_MOTION_DOT":1.592e-5,"MEAN_MOTION_DDOT":0},{"OBJECT_NAME":"CANX-5","OBJECT_ID":"2014-034D","EPOCH":"2026-03-06T04:44:22.766208","MEAN_MOTION":14.81068109,"ECCENTRICITY":0.00125706,"INCLINATION":98.3283,"RA_OF_ASC_NODE":296.6887,"ARG_OF_PERICENTER":348.188,"MEAN_ANOMALY":11.9035,"EPHEMERIS_TYPE":0,"CLASSIFICATION_TYPE":"U","NORAD_CAT_ID":40056,"ELEMENT_SET_NO":999,"REV_AT_EPOCH":62009,"BSTAR":0.00021397415,"MEAN_MOTION_DOT":1.605e-5,"MEAN_MOTION_DDOT":0},{"OBJECT_NAME":"UKUBE-1","OBJECT_ID":"2014-037F","EPOCH":"2026-03-05T21:51:27.491040","MEAN_MOTION":15.11691452,"ECCENTRICITY":0.00029116,"INCLINATION":98.4232,"RA_OF_ASC_NODE":57.4881,"ARG_OF_PERICENTER":114.9636,"MEAN_ANOMALY":245.1894,"EPHEMERIS_TYPE":0,"CLASSIFICATION_TYPE":"U","NORAD_CAT_ID":40074,"ELEMENT_SET_NO":999,"REV_AT_EPOCH":63294,"BSTAR":0.00069914698,"MEAN_MOTION_DOT":0.00011838,"MEAN_MOTION_DDOT":0},{"OBJECT_NAME":"BRITE-PL2 (HEWELIUSZ)","OBJECT_ID":"2014-049B","EPOCH":"2026-03-06T06:11:09.047040","MEAN_MOTION":14.94161298,"ECCENTRICITY":0.00156086,"INCLINATION":97.8984,"RA_OF_ASC_NODE":176.5682,"ARG_OF_PERICENTER":91.8548,"MEAN_ANOMALY":268.4459,"EPHEMERIS_TYPE":0,"CLASSIFICATION_TYPE":"U","NORAD_CAT_ID":40119,"ELEMENT_SET_NO":999,"REV_AT_EPOCH":62607,"BSTAR":0.0003643545,"MEAN_MOTION_DOT":3.85e-5,"MEAN_MOTION_DDOT":0},{"OBJECT_NAME":"AEROCUBE 5C","OBJECT_ID":"2015-058B","EPOCH":"2026-03-06T03:45:38.972448","MEAN_MOTION":14.9081739,"ECCENTRICITY":0.01308922,"INCLINATION":64.767,"RA_OF_ASC_NODE":222.9588,"ARG_OF_PERICENTER":103.8986,"MEAN_ANOMALY":257.6726,"EPHEMERIS_TYPE":0,"CLASSIFICATION_TYPE":"U","NORAD_CAT_ID":40965,"ELEMENT_SET_NO":999,"REV_AT_EPOCH":35029,"BSTAR":0.00042294319,"MEAN_MOTION_DOT":4.744e-5,"MEAN_MOTION_DDOT":0},{"OBJECT_NAME":"AEROCUBE 7","OBJECT_ID":"2015-058C","EPOCH":"2026-03-05T16:52:54.140160","MEAN_MOTION":14.9484304,"ECCENTRICITY":0.01208564,"INCLINATION":64.7625,"RA_OF_ASC_NODE":208.7339,"ARG_OF_PERICENTER":103.1701,"MEAN_ANOMALY":258.2931,"EPHEMERIS_TYPE":0,"CLASSIFICATION_TYPE":"U","NORAD_CAT_ID":40966,"ELEMENT_SET_NO":999,"REV_AT_EPOCH":35048,"BSTAR":0.00058641463,"MEAN_MOTION_DOT":7.242e-5,"MEAN_MOTION_DDOT":0},{"OBJECT_NAME":"FOX-1A (AO-85)","OBJECT_ID":"2015-058D","EPOCH":"2026-03-05T23:15:08.003232","MEAN_MOTION":14.90316117,"ECCENTRICITY":0.01290651,"INCLINATION":64.774,"RA_OF_ASC_NODE":239.5934,"ARG_OF_PERICENTER":97.4133,"MEAN_ANOMALY":264.1666,"EPHEMERIS_TYPE":0,"CLASSIFICATION_TYPE":"U","NORAD_CAT_ID":40967,"ELEMENT_SET_NO":999,"REV_AT_EPOCH":9818,"BSTAR":0.00042003243,"MEAN_MOTION_DOT":4.624e-5,"MEAN_MOTION_DDOT":0},{"OBJECT_NAME":"SINOD-D 1","OBJECT_ID":"2015-058E","EPOCH":"2026-03-05T19:50:47.065632","MEAN_MOTION":14.94998582,"ECCENTRICITY":0.01174363,"INCLINATION":64.7751,"RA_OF_ASC_NODE":222.3735,"ARG_OF_PERICENTER":94.7851,"MEAN_ANOMALY":266.6685,"EPHEMERIS_TYPE":0,"CLASSIFICATION_TYPE":"U","NORAD_CAT_ID":40968,"ELEMENT_SET_NO":999,"REV_AT_EPOCH":10120,"BSTAR":0.00059701368,"MEAN_MOTION_DOT":7.347e-5,"MEAN_MOTION_DDOT":0},{"OBJECT_NAME":"SNAP-3 ALICE","OBJECT_ID":"2015-058G","EPOCH":"2026-03-06T06:29:26.971584","MEAN_MOTION":15.43162411,"ECCENTRICITY":0.00374866,"INCLINATION":64.7555,"RA_OF_ASC_NODE":94.8551,"ARG_OF_PERICENTER":69.9807,"MEAN_ANOMALY":290.536,"EPHEMERIS_TYPE":0,"CLASSIFICATION_TYPE":"U","NORAD_CAT_ID":40970,"ELEMENT_SET_NO":999,"REV_AT_EPOCH":10092,"BSTAR":0.0014055428,"MEAN_MOTION_DOT":0.00064583,"MEAN_MOTION_DDOT":0},{"OBJECT_NAME":"LMRST-SAT","OBJECT_ID":"2015-058H","EPOCH":"2026-03-05T21:33:37.457280","MEAN_MOTION":14.89947949,"ECCENTRICITY":0.01312,"INCLINATION":64.7747,"RA_OF_ASC_NODE":235.9587,"ARG_OF_PERICENTER":99.39,"MEAN_ANOMALY":262.2072,"EPHEMERIS_TYPE":0,"CLASSIFICATION_TYPE":"U","NORAD_CAT_ID":40971,"ELEMENT_SET_NO":999,"REV_AT_EPOCH":9816,"BSTAR":0.0004203171,"MEAN_MOTION_DOT":4.606e-5,"MEAN_MOTION_DDOT":0},{"OBJECT_NAME":"SNAP-3 EDDIE","OBJECT_ID":"2015-058J","EPOCH":"2026-03-06T08:01:13.974528","MEAN_MOTION":15.44152666,"ECCENTRICITY":0.003869,"INCLINATION":64.7476,"RA_OF_ASC_NODE":86.0515,"ARG_OF_PERICENTER":74.9372,"MEAN_ANOMALY":285.6042,"EPHEMERIS_TYPE":0,"CLASSIFICATION_TYPE":"U","NORAD_CAT_ID":40972,"ELEMENT_SET_NO":999,"REV_AT_EPOCH":10306,"BSTAR":0.0013457452,"MEAN_MOTION_DOT":0.0006406,"MEAN_MOTION_DDOT":0},{"OBJECT_NAME":"PROPCUBE 3","OBJECT_ID":"2015-058K","EPOCH":"2026-03-05T20:21:32.513472","MEAN_MOTION":14.93480098,"ECCENTRICITY":0.01237676,"INCLINATION":64.7687,"RA_OF_ASC_NODE":215.215,"ARG_OF_PERICENTER":101.1974,"MEAN_ANOMALY":260.3082,"EPHEMERIS_TYPE":0,"CLASSIFICATION_TYPE":"U","NORAD_CAT_ID":40973,"ELEMENT_SET_NO":999,"REV_AT_EPOCH":9936,"BSTAR":0.00056406156,"MEAN_MOTION_DOT":6.75e-5,"MEAN_MOTION_DDOT":0},{"OBJECT_NAME":"BISONSAT","OBJECT_ID":"2015-058L","EPOCH":"2026-03-05T15:51:44.940384","MEAN_MOTION":15.13675233,"ECCENTRICITY":0.00795261,"INCLINATION":64.7602,"RA_OF_ASC_NODE":147.7349,"ARG_OF_PERICENTER":92.5058,"MEAN_ANOMALY":268.5172,"EPHEMERIS_TYPE":0,"CLASSIFICATION_TYPE":"U","NORAD_CAT_ID":40974,"ELEMENT_SET_NO":999,"REV_AT_EPOCH":9993,"BSTAR":0.00077377117,"MEAN_MOTION_DOT":0.00014949,"MEAN_MOTION_DDOT":0}]
